{
  "links" : {
    "next" : "https://api.nasa.gov/neo/rest/v1/feed?start_date=1995-08-09&end_date=1995-08-09&detailed=true&api_key=t0TVs3DtDT2H8Oy2Zy8m2eVrNsAVKAexjcZXUckd",
    "prev" : "https://api.nasa.gov/neo/rest/v1/feed?start_date=1995-08-07&end_date=1995-08-07&detailed=true&api_key=t0TVs3DtDT2H8Oy2Zy8m2eVrNsAVKAexjcZXUckd",
    "self" : "https://api.nasa.gov/neo/rest/v1/feed?start_date=1995-08-08&end_date=1995-08-08&detailed=true&api_key=t0TVs3DtDT2H8Oy2Zy8m2eVrNsAVKAexjcZXUckd"
  },
  "element_count" : 7,
  "near_earth_objects" : {
    "1995-08-08" : [ {
      "links" : {
        "self" : "https://api.nasa.gov/neo/rest/v1/neo/2307070?api_key=t0TVs3DtDT2H8Oy2Zy8m2eVrNsAVKAexjcZXUckd"
      },
      "neo_reference_id" : "2307070",
      "name" : "307070 (2002 AV31)",
      "nasa_jpl_url" : "http://ssd.jpl.nasa.gov/sbdb.cgi?sstr=2307070",
      "absolute_magnitude_h" : 20.7,
      "estimated_diameter" : {
        "kilometers" : {
          "estimated_diameter_min" : 0.1925550782,
          "estimated_diameter_max" : 0.4305662442
        },
        "meters" : {
          "estimated_diameter_min" : 192.5550781879,
          "estimated_diameter_max" : 430.566244241
        },
        "miles" : {
          "estimated_diameter_min" : 0.1196481415,
          "estimated_diameter_max" : 0.2675413778
        },
        "feet" : {
          "estimated_diameter_min" : 631.7424027221,
          "estimated_diameter_max" : 1412.6189567557
        }
      },
      "is_potentially_hazardous_asteroid" : false,
      "close_approach_data" : [ {
        "close_approach_date" : "1995-08-08",
        "epoch_date_close_approach" : 807865200000,
        "relative_velocity" : {
          "kilometers_per_second" : "14.6993080325",
          "kilometers_per_hour" : "52917.5089169024",
          "miles_per_hour" : "32880.8821378386"
        },
        "miss_distance" : {
          "astronomical" : "0.29796017",
          "lunar" : "115.90650177",
          "kilometers" : "44574208",
          "miles" : "27697128"
        },
        "orbiting_body" : "Earth"
      } ],
      "orbital_data" : {
        "orbit_id" : "75",
        "orbit_determination_date" : "2017-04-06 09:23:59",
        "orbit_uncertainty" : "0",
        "minimum_orbit_intersection" : ".143015",
        "jupiter_tisserand_invariant" : "4.911",
        "epoch_osculation" : "2458000.5",
        "eccentricity" : ".249441069304206",
        "semi_major_axis" : "1.310034736062646",
        "inclination" : "14.97551130247512",
        "ascending_node_longitude" : "119.3113637536016",
        "orbital_period" : "547.6746555831121",
        "perihelion_distance" : ".9832582706735261",
        "perihelion_argument" : "267.3785244832686",
        "aphelion_distance" : "1.636811201451766",
        "perihelion_time" : "2458217.784534408203",
        "mean_anomaly" : "217.173539820518",
        "mean_motion" : ".6573245563403077",
        "equinox" : "J2000"
      }
    }, {
      "links" : {
        "self" : "https://api.nasa.gov/neo/rest/v1/neo/2314082?api_key=t0TVs3DtDT2H8Oy2Zy8m2eVrNsAVKAexjcZXUckd"
      },
      "neo_reference_id" : "2314082",
      "name" : "314082 Dryope (2005 CZ36)",
      "nasa_jpl_url" : "http://ssd.jpl.nasa.gov/sbdb.cgi?sstr=2314082",
      "absolute_magnitude_h" : 17.5,
      "estimated_diameter" : {
        "kilometers" : {
          "estimated_diameter_min" : 0.8405334021,
          "estimated_diameter_max" : 1.8794898244
        },
        "meters" : {
          "estimated_diameter_min" : 840.5334020728,
          "estimated_diameter_max" : 1879.4898243938
        },
        "miles" : {
          "estimated_diameter_min" : 0.5222830806,
          "estimated_diameter_max" : 1.1678604717
        },
        "feet" : {
          "estimated_diameter_min" : 2757.6556068564,
          "estimated_diameter_max" : 6166.3053954643
        }
      },
      "is_potentially_hazardous_asteroid" : true,
      "close_approach_data" : [ {
        "close_approach_date" : "1995-08-08",
        "epoch_date_close_approach" : 807865200000,
        "relative_velocity" : {
          "kilometers_per_second" : "21.255850666",
          "kilometers_per_hour" : "76521.0623977573",
          "miles_per_hour" : "47547.2123548732"
        },
        "miss_distance" : {
          "astronomical" : "0.305244776",
          "lunar" : "118.7402191162",
          "kilometers" : "45663968",
          "miles" : "28374274"
        },
        "orbiting_body" : "Earth"
      } ],
      "orbital_data" : {
        "orbit_id" : "55",
        "orbit_determination_date" : "2017-04-06 09:23:50",
        "orbit_uncertainty" : "0",
        "minimum_orbit_intersection" : ".0197173",
        "jupiter_tisserand_invariant" : "3.356",
        "epoch_osculation" : "2458000.5",
        "eccentricity" : ".5749602982938385",
        "semi_major_axis" : "2.237486605660774",
        "inclination" : "16.14284854240449",
        "ascending_node_longitude" : "116.8191316160531",
        "orbital_period" : "1222.472485465145",
        "perihelion_distance" : ".9510206394415869",
        "perihelion_argument" : "139.3276943771838",
        "aphelion_distance" : "3.52395257187996",
        "perihelion_time" : "2458453.144808691085",
        "mean_anomaly" : "226.7028231177015",
        "mean_motion" : ".2944851555190803",
        "equinox" : "J2000"
      }
    }, {
      "links" : {
        "self" : "https://api.nasa.gov/neo/rest/v1/neo/3008362?api_key=t0TVs3DtDT2H8Oy2Zy8m2eVrNsAVKAexjcZXUckd"
      },
      "neo_reference_id" : "3008362",
      "name" : "(1996 AE2)",
      "nasa_jpl_url" : "http://ssd.jpl.nasa.gov/sbdb.cgi?sstr=3008362",
      "absolute_magnitude_h" : 20.3,
      "estimated_diameter" : {
        "kilometers" : {
          "estimated_diameter_min" : 0.2315021222,
          "estimated_diameter_max" : 0.5176544822
        },
        "meters" : {
          "estimated_diameter_min" : 231.5021222103,
          "estimated_diameter_max" : 517.6544821978
        },
        "miles" : {
          "estimated_diameter_min" : 0.1438487052,
          "estimated_diameter_max" : 0.3216554833
        },
        "feet" : {
          "estimated_diameter_min" : 759.5214226325,
          "estimated_diameter_max" : 1698.3415313737
        }
      },
      "is_potentially_hazardous_asteroid" : false,
      "close_approach_data" : [ {
        "close_approach_date" : "1995-08-08",
        "epoch_date_close_approach" : 807865200000,
        "relative_velocity" : {
          "kilometers_per_second" : "19.8486346",
          "kilometers_per_hour" : "71455.0845598909",
          "miles_per_hour" : "44399.4107366722"
        },
        "miss_distance" : {
          "astronomical" : "0.4835802625",
          "lunar" : "188.1127166748",
          "kilometers" : "72342576",
          "miles" : "44951592"
        },
        "orbiting_body" : "Earth"
      } ],
      "orbital_data" : {
        "orbit_id" : "30",
        "orbit_determination_date" : "2017-04-06 09:18:06",
        "orbit_uncertainty" : "0",
        "minimum_orbit_intersection" : ".122189",
        "jupiter_tisserand_invariant" : "4.593",
        "epoch_osculation" : "2458000.5",
        "eccentricity" : ".2568069943428223",
        "semi_major_axis" : "1.367546504692949",
        "inclination" : "37.36069360524818",
        "ascending_node_longitude" : "118.9617953672091",
        "orbital_period" : "584.1327857113762",
        "perihelion_distance" : "1.016350997198721",
        "perihelion_argument" : "305.8884068834909",
        "aphelion_distance" : "1.718742012187178",
        "perihelion_time" : "2458225.753561660821",
        "mean_anomaly" : "221.1766293872037",
        "mean_motion" : ".6162982267149756",
        "equinox" : "J2000"
      }
    } ]
  }
}